OBJECT_NAME,OBJECT_ID,EPOCH,MEAN_MOTION,ECCENTRICITY,INCLINATION,RA_OF_ASC_NODE,ARG_OF_PERICENTER,MEAN_ANOMALY,EPHEMERIS_TYPE,CLASSIFICATION_TYPE,NORAD_CAT_ID,ELEMENT_SET_NO,REV_AT_EPOCH,BSTAR,MEAN_MOTION_DOT,MEAN_MOTION_DDOT
H-2A R/B,2006-002B,2026-06-14T05:17:03.128640,15.18028445,.00495279,98.2554,320.7809,272.6676,86.8887,0,U,28932,999,10907,.30530397E-3,.633E-4,0
RESURS-DK 1,2006-021A,2026-06-14T04:37:47.711712,15.13206863,.00068225,69.9339,347.3035,294.1766,65.8686,0,U,29228,999,10212,.14577621E-3,.2487E-4,0
CZ-4B R/B,2006-046C,2026-06-14T02:07:10.986240,15.17763803,.00310897,97.5455,209.7047,294.0637,65.7345,0,U,29507,999,7466,.20314571E-3,.4082E-4,0
CZ-2C R/B,2007-010B,2026-06-14T07:29:54.512736,14.20275635,.00591911,98.4095,273.8039,14.4673,345.8182,0,U,31114,999,99343,.48162836E-4,.64E-6,0
COSMO-SKYMED 1,2007-023A,2026-06-14T06:15:50.215968,14.97086399,.00010879,97.8840,357.0925,97.0658,263.0687,0,U,31598,999,2935,.21037212E-3,.2366E-4,0
COSMOS 2428,2007-029A,2026-06-14T05:47:07.012896,14.12928608,.00071687,70.9370,0.6637,140.6282,219.5362,0,U,31792,999,97773,-.43823061E-4,-.13E-5,0
SL-16 R/B,2007-029B,2026-06-14T05:35:02.488416,14.14853811,.0002269,70.9767,329.4393,261.2400,271.3761,0,U,31793,999,97902,.13701479E-3,.217E-5,0
KORONAS-FOTON,2009-003A,2026-06-14T07:04:27.276096,15.45674735,.00113522,82.4280,175.2766,156.9092,203.2669,0,U,33504,999,96065,.23970257E-3,.11628E-3,0
CZ-2C R/B,2011-030B,2026-06-14T03:03:32.156064,14.81464702,.00532797,97.8655,120.5688,37.7708,334.2888,0,U,37731,999,80437,.15685562E-3,.1204E-4,0
H-2A R/B,2012-025E,2026-06-14T05:07:18.540192,14.95703976,.00438371,98.4824,140.1138,359.0930,1.0202,0,U,38341,999,76264,.30086662E-3,.3343E-4,0
SHIJIAN-16 (SJ-16),2013-057A,2026-06-14T06:57:52.721856,14.92599820,.00168265,74.9731,2.1711,237.5421,122.4141,0,U,39358,999,68591,.44777047E-4,.432E-5,0
SL-4 R/B,2014-021B,2026-06-13T21:18:51.895296,15.41894600,.0091369,51.6050,226.9341,93.9448,267.1989,0,U,39679,999,67110,.21672E-3,.10424E-3,0
ALOS-2,2014-029A,2026-06-14T07:09:57.750912,14.79480022,.00016133,97.9219,262.5030,92.2427,267.8969,0,U,39766,999,65115,.22549927E-3,.1633E-4,0
YAOGAN-29,2015-069A,2026-06-14T06:38:25.417248,14.83081238,.00027401,98.0031,193.9048,58.6606,301.4875,0,U,41038,999,57019,-.17713659E-4,-.198E-5,0
ASTRO-H (HITOMI),2016-012A,2026-06-14T03:02:27.619584,15.10498939,.0009751,30.9991,93.9524,223.3647,136.6224,0,U,41337,999,56682,.14075146E-3,.2474E-4,0
HXMT (HUIYAN),2017-034A,2026-06-14T07:20:26.500992,15.18463002,.00303065,43.0127,199.0855,128.2965,232.0616,0,U,42758,999,49722,.16651878E-3,.3289E-4,0
SAOCOM 1A,2018-076A,2026-06-14T07:12:50.067072,14.82147640,.00016166,97.8880,352.0915,78.8315,281.3080,0,U,43641,999,41567,.70242104E-4,.507E-5,0
H-2A R/B,2018-084L,2026-06-14T05:08:09.288960,15.45053393,.00237356,98.8586,43.4544,50.6393,309.6949,0,U,43682,999,42066,.41765483E-3,.19845E-3,0
SAOCOM 1B,2020-059A,2026-06-14T03:06:09.457632,14.82167626,.00014547,97.8882,351.0173,80.9112,279.2265,0,U,46265,999,31303,.40499752E-4,.27E-5,0
CSS (TIANHE),2021-035A,2026-06-14T03:52:37.439616,15.60689990,.00077008,41.4696,340.4133,52.5906,307.5633,0,U,48274,999,29269,.2878446E-3,.24349E-3,0
COSMOS 2550,2021-056A,2026-06-14T00:35:19.468032,15.33827229,.00084159,67.1406,109.4720,268.2428,91.7762,0,U,48865,999,27823,.109606E-5,-.156E-5,0
CZ-2C R/B,2022-058K,2026-06-14T07:10:31.490112,15.61663806,.00326538,50.1837,178.5447,256.0677,103.6664,0,U,52794,999,22519,.40700887E-3,.3639E-3,0
CZ-2C R/B,2022-132E,2026-06-14T06:52:55.278624,15.71198099,.00164376,97.2892,172.1822,93.1549,267.1595,0,U,54039,999,20549,.45817007E-3,.58402E-3,0
GSLV R/B,2022-138AN,2026-06-14T07:27:26.608032,14.97244202,.00224429,87.3799,133.9499,153.3708,206.8682,0,U,54149,999,19838,.22362021E-3,.263E-4,0
XRISM,2023-137A,2026-06-14T06:53:04.538976,15.12442568,.00079745,31.0031,18.3881,295.0173,64.9638,0,U,57800,999,15242,.25810062E-3,.4699E-4,0
ACS3,2024-077B,2026-06-14T04:34:34.067712,13.93842455,.00676378,97.1678,84.6447,66.5004,294.3252,0,U,59588,999,10762,.55011471E-2,.7369E-4,0
CZ-8A R/B,2025-231K,2026-06-13T21:47:06.252000,14.30154115,.0116473,50.0054,53.2684,212.4566,146.9149,0,U,66004,999,3447,.38923E-4,-.54E-6,0
SZ-21 MODULE,2025-246C,2026-06-13T17:32:52.137600,15.76117488,.00067511,41.4731,328.8460,328.3391,31.7047,0,U,66515,999,3319,.28446481E-3,.45764E-3,0
