H-2A R/B                
1 28932U 06002B   26165.22017510  .00006330  00000+0  30530-3 0  9995
2 28932  98.2554 320.7809 0049527 272.6676  86.8887 15.18028445109071
RESURS-DK 1             
1 29228U 06021A   26165.19291333  .00002487  00000+0  14578-3 0  9991
2 29228  69.9339 347.3035 0006822 294.1766  65.8686 15.13206863102122
CZ-4B R/B               
1 29507U 06046C   26165.08832160  .00004082  00000+0  20315-3 0  9994
2 29507  97.5455 209.7047 0031089 294.0637  65.7345 15.17763803 74665
CZ-2C R/B               
1 31114U 07010B   26165.31243649  .00000064  00000+0  48163-4 0  9995
2 31114  98.4095 273.8039 0059191  14.4673 345.8182 14.20275635993433
COSMO-SKYMED 1          
1 31598U 07023A   26165.26099787  .00002366  00000+0  21037-3 0  9998
2 31598  97.8840 357.0925 0001087  97.0658 263.0687 14.97086399 29353
COSMOS 2428             
1 31792U 07029A   26165.24105339 -.00000130  00000+0 -43823-4 0  9996
2 31792  70.9370   0.6637 0007168 140.6282 219.5362 14.12928608977739
SL-16 R/B               
1 31793U 07029B   26165.23266769  .00000217  00000+0  13701-3 0  9996
2 31793  70.9767 329.4393 0002269 261.2400 271.3761 14.14853811979028
KORONAS-FOTON           
1 33504U 09003A   26165.29476014  .00011628  00000+0  23970-3 0  9991
2 33504  82.4280 175.2766 0011352 156.9092 203.2669 15.45674735960650
CZ-2C R/B               
1 37731U 11030B   26165.12745551  .00001204  00000+0  15686-3 0  9991
2 37731  97.8655 120.5688 0053279  37.7708 334.2888 14.81464702804376
H-2A R/B                
1 38341U 12025E   26165.21340903  .00003343  00000+0  30087-3 0  9994
2 38341  98.4824 140.1138 0043837 359.0930   1.0202 14.95703976762649
SHIJIAN-16 (SJ-16)      
1 39358U 13057A   26165.29019354  .00000432  00000+0  44777-4 0  9998
2 39358  74.9731   2.1711 0016826 237.5421 122.4141 14.92599820685913
SL-4 R/B                
1 39679U 14021B   26164.88810064  .00010424  00000+0  21672-3 0  9997
2 39679  51.6050 226.9341 0091369  93.9448 267.1989 15.41894600671100
ALOS-2                  
1 39766U 14029A   26165.29858508  .00001633  00000+0  22550-3 0  9991
2 39766  97.9219 262.5030 0001613  92.2427 267.8969 14.79480022651157
YAOGAN-29               
1 41038U 15069A   26165.27668307 -.00000198  00000+0 -17714-4 0  9999
2 41038  98.0031 193.9048 0002740  58.6606 301.4875 14.83081238570195
ASTRO-H (HITOMI)        
1 41337U 16012A   26165.12670856  .00002474  00000+0  14075-3 0  9999
2 41337  30.9991  93.9524 0009751 223.3647 136.6224 15.10498939566822
HXMT (HUIYAN)           
1 42758U 17034A   26165.30586228  .00003289  00000+0  16652-3 0  9999
2 42758  43.0127 199.0855 0030306 128.2965 232.0616 15.18463002497221
SAOCOM 1A               
1 43641U 18076A   26165.30057948  .00000507  00000+0  70242-4 0  9996
2 43641  97.8880 352.0915 0001616  78.8315 281.3080 14.82147640415673
H-2A R/B                
1 43682U 18084L   26165.21399640  .00019845  00000+0  41765-3 0  9990
2 43682  98.8586  43.4544 0023735  50.6393 309.6949 15.45053393420665
SAOCOM 1B               
1 46265U 20059A   26165.12927613  .00000270  00000+0  40500-4 0  9991
2 46265  97.8882 351.0173 0001454  80.9112 279.2265 14.82167626313038
CSS (TIANHE)            
1 48274U 21035A   26165.16154444  .00024349  00000+0  28784-3 0  9998
2 48274  41.4696 340.4133 0007700  52.5906 307.5633 15.60689990292694
COSMOS 2550             
1 48865U 21056A   26165.02453088 -.00000156  00000+0  10961-5 0  9999
2 48865  67.1406 109.4720 0008415 268.2428  91.7762 15.33827229278236
CZ-2C R/B               
1 52794U 22058K   26165.29897558  .00036390  00000+0  40701-3 0  9992
2 52794  50.1837 178.5447 0032653 256.0677 103.6664 15.61663806225198
CZ-2C R/B               
1 54039U 22132E   26165.28675091  .00058402  00000+0  45817-3 0  9995
2 54039  97.2892 172.1822 0016437  93.1549 267.1595 15.71198099205490
GSLV R/B                
1 54149U 22138AN  26165.31072463  .00002630  00000+0  22362-3 0  9993
2 54149  87.3799 133.9499 0022442 153.3708 206.8682 14.97244202198383
XRISM                   
1 57800U 23137A   26165.28685809  .00004699  00000+0  25810-3 0  9998
2 57800  31.0031  18.3881 0007974 295.0173  64.9638 15.12442568152421
ACS3                    
1 59588U 24077B   26165.19067208  .00007369  00000+0  55011-2 0  9996
2 59588  97.1678  84.6447 0067637  66.5004 294.3252 13.93842455107625
CZ-8A R/B               
1 66004U 25231K   26164.90771125 -.00000054  00000+0  38923-4 0  9998
2 66004  50.0054  53.2684 0116473 212.4566 146.9149 14.30154115 34475
SZ-21 MODULE            
1 66515U 25246C   26164.73115900  .00045764  00000+0  28446-3 0  9999
2 66515  41.4731 328.8460 0006751 328.3391  31.7047 15.76117488 33190
